OBJECT_NAME,OBJECT_ID,EPOCH,MEAN_MOTION,ECCENTRICITY,INCLINATION,RA_OF_ASC_NODE,ARG_OF_PERICENTER,MEAN_ANOMALY,EPHEMERIS_TYPE,CLASSIFICATION_TYPE,NORAD_CAT_ID,ELEMENT_SET_NO,REV_AT_EPOCH,BSTAR,MEAN_MOTION_DOT,MEAN_MOTION_DDOT
SKYSAT-C4,2016-058B,2026-06-26T07:31:06.408768,15.48863181,.0002047,96.9173,198.7035,140.2320,219.9082,0,U,41771,999,54688,.34534E-3,.1853E-3,0
SKYSAT-C5,2016-058C,2026-06-26T16:33:07.862112,15.34598255,.000121,97.0469,217.9060,220.2430,139.8725,0,U,41772,999,54520,.22498E-3,.7468E-4,0
SKYSAT-C2,2016-058D,2026-06-26T00:27:29.193696,15.42261578,.0003924,97.0169,198.7820,51.2857,308.8741,0,U,41773,999,54641,.3259561E-3,.13945E-3,0
SKYSAT-C3,2016-058E,2026-06-25T14:03:43.050816,15.52881901,.00012589,96.9009,207.1097,117.9292,242.2090,0,U,41774,999,54741,.43483814E-3,.26959E-3,0
ALSAT-1B,2016-059C,2026-06-26T18:07:15.094848,14.72281550,.0008843,97.7752,186.1058,186.3587,173.7510,0,U,41785,999,52198,.73871E-4,.42E-5,0
PATHFINDER 1,2016-059E,2026-06-26T11:26:30.162336,14.67672610,.002858,97.8167,176.3338,173.6839,186.4732,0,U,41787,999,52107,.10274E-3,.541E-5,0
SCATSAT 1,2016-059H,2026-06-26T16:21:19.024416,14.79544640,.0053835,98.1188,241.5456,216.2788,143.4769,0,U,41790,999,10299,.15096E-3,.11E-4,0
GOKTURK 1A,2016-073A,2026-06-26T16:27:04.640832,14.62780882,.0001419,98.1245,72.2107,78.4155,281.7206,0,U,41875,999,51021,.85767E-4,.391E-5,0
RESOURCESAT-2A,2016-074A,2026-06-26T17:06:55.120608,14.21619347,.0003226,98.7527,251.1399,65.3724,294.7789,0,U,41877,999,49565,.87902E-4,.149E-5,0
CARTOSAT-2D,2017-008A,2026-06-26T17:00:39.117312,15.19278606,.0004636,97.4105,236.8371,195.6503,164.4590,0,U,41948,999,51902,.31834E-3,.665E-4,0
SENTINEL-2B,2017-013A,2026-06-26T17:13:53.173056,14.30820218,.0001196,98.5692,252.3582,87.2239,272.9080,0,U,42063,999,48600,.12603E-3,.287E-5,0
CARTOSAT-2E,2017-036C,2026-06-26T17:26:06.678816,15.19235149,.0002207,97.4275,237.3721,275.2056,84.8927,0,U,42767,999,49959,.20444E-3,.4239E-4,0
FORMOSAT-5,2017-049A,2026-06-26T16:59:10.089888,14.50901919,.0012443,98.2253,252.8060,57.8983,302.3418,0,U,42920,999,46805,.43993E-4,.13E-5,0
SENTINEL-5P,2017-064A,2026-06-26T17:13:10.814592,14.19520411,.0001035,98.7925,119.7811,90.3309,269.7985,0,U,42969,999,45091,.35273E-4,.3E-6,0
SKYSAT-C11,2017-068A,2026-06-26T08:52:14.752416,15.58354421,.0000448,97.4351,326.6033,123.0014,237.1285,0,U,42987,999,48467,.39203E-3,.29711E-3,0
SKYSAT-C10,2017-068B,2026-06-26T16:21:05.406048,15.34789181,.0001166,97.4509,314.6220,105.1897,254.9475,0,U,42988,999,48381,.26884E-3,.8987E-4,0
SKYSAT-C9,2017-068C,2026-06-26T15:36:42.932160,15.41785095,.0009559,97.4430,315.6165,103.5554,256.6758,0,U,42989,999,48421,.3129E-3,.13182E-3,0
SKYSAT-C8,2017-068D,2026-06-26T15:18:58.053024,15.37151628,.0001351,97.4527,314.4144,94.8903,265.2496,0,U,42990,999,48376,.28591E-3,.10318E-3,0
SKYSAT-C7,2017-068E,2026-06-26T15:10:12.360000,15.37103897,.0007064,97.4535,315.3982,79.1709,281.0330,0,U,42991,999,48382,.28611E-3,.10317E-3,0
SKYSAT-C6,2017-068F,2026-06-26T08:14:20.719968,15.34113077,.0005173,97.4571,315.0399,125.8048,234.3676,0,U,42992,999,48372,.31332E-3,.10269E-3,0
CARTOSAT-2F,2018-004A,2026-06-26T16:37:45.272640,15.19289767,.0001597,97.4791,237.2350,168.7744,191.3526,0,U,43111,999,46877,.33161E-3,.693E-4,0
GAOFEN-1 02,2018-031A,2026-06-26T17:14:58.018848,14.76420340,.0002969,98.0527,240.2192,7.1094,353.0157,0,U,43259,999,44410,.10751E-3,.696E-5,0
GAOFEN-1 03,2018-031B,2026-06-26T18:20:55.836960,14.76437111,.0003614,98.0515,240.1223,59.8428,300.3139,0,U,43260,999,44410,.23027E-4,.109E-5,0
GAOFEN-1 04,2018-031D,2026-06-26T17:46:05.653344,14.76447956,.0002025,98.0528,240.2900,65.4233,294.7188,0,U,43262,999,44409,.18089E-3,.1207E-4,0
SENTINEL-3B,2018-039A,2026-06-26T17:27:25.352064,14.26737250,.0000756,98.6246,245.1228,107.4193,252.7070,0,U,43437,999,42548,.55871E-4,.92E-6,0
GAOFEN-5 01,2018-043A,2026-06-26T15:39:29.738592,14.60611596,.0002905,98.4574,149.4376,67.0405,293.1101,0,U,43461,999,43307,.7631E-4,.322E-5,0
GAOFEN-6,2018-048A,2026-06-25T19:30:44.521056,14.76423510,.00117023,98.0567,239.4730,138.2343,221.9762,0,U,43484,999,43466,.48573015E-4,.286E-5,0
GAOFEN-11 01,2018-063A,2026-06-26T18:13:11.343648,15.55558132,.000224,97.1291,244.6124,310.9177,49.1884,0,U,43585,999,44183,.26576E-3,.18102E-3,0
ICESAT-2,2018-070A,2026-06-26T14:00:42.539616,15.28186647,.0006238,92.0082,293.5176,98.1260,262.0697,0,U,43613,999,43389,.36633E-3,.10066E-3,0
HYSIS,2018-096A,2026-06-26T16:27:02.777184,14.78636493,.0001838,97.9840,244.3593,92.3721,267.7700,0,U,43719,999,40882,.24645E-3,.1753E-4,0
KAZSTSAT,2018-099AB,2026-06-26T13:42:02.628864,14.99897375,.0008579,97.4287,209.0735,44.0875,316.1032,0,U,43783,999,41271,.15579E-3,.1877E-4,0
